ORBCOMM FM37            
1 33064U 08031E   24255.64434385  .00006699  00000+0  95982-3 0  9998
2 33064  48.4385 225.7491 0005843 264.8054 266.3676 14.77378971872826
ORBCOMM FM40            
1 33065U 08031F   24255.31435997  .00008232  00000+0  11305-2 0  9994
2 33065  48.4407 215.3965 0007043 272.5081 236.0719 14.78938267872837
VESSELSAT 1             
1 37840U 11058C   24255.59713268  .00000733  00000+0  25579-3 0  9999
2 37840  19.9632 339.4815 0013719   3.1699 356.8791 14.11211350667137
ORBCOMM FM109           
1 40086U 14040A   24255.29811273  .00003639  00000+0  83589-3 0  9994
2 40086  47.0016 252.5247 0000922 116.6269 243.4711 14.57131094540375
ORBCOMM FM107           
1 40087U 14040B   24255.40100463  .00002953  00000+0  68597-3 0  9990
2 40087  47.0033 253.0260 0000699  34.8444 325.2487 14.57091151540461
ORBCOMM FM106           
1 40088U 14040C   24255.80084210  .00004636  00000+0  83588-3 0  9993
2 40088  47.0595  95.0147 0018342 215.0200 144.9485 14.67701661542764
ORBCOMM FM111           
1 40089U 14040D   24255.51925439  .00008906  00000+0  10994-2 0  9993
2 40089  47.0052 342.5301 0033735 299.9233  59.8314 14.82907916548810
ORBCOMM FM104           
1 40090U 14040E   24255.43320335  .00002981  00000+0  71452-3 0  9994
2 40090  47.0044 283.2070 0016939   7.9775 352.1376 14.55549524539995
